FORMOSAT-3 FM3          
1 29050U 06011D   12354.67686305  .00001138  00000-0  26646-3 0  3286
2 29050  72.0179  62.1877 0054787 251.7630 107.7523 14.55608536357586
FORMOSAT-3 FM4          
1 29051U 06011E   12354.76658976  .00000376  00000-0  16522-3 0   563
2 29051  72.0079 269.1028 0069308 333.0559  26.6991 14.27601974351425
FORMOSAT-3 FM2          
1 29052U 06011F   12355.42325458  .00000364  00000-0  16273-3 0   777
2 29052  72.0352 333.8715 0038895  67.9193 292.6049 14.27651519349826
CLOUDSAT                
1 29107U 06016A   12354.02450726  .00000438  00000-0  10724-3 0  1289
2 29107  98.2172 294.5256 0001147  93.9358 266.2016 14.57088416353449
CALIPSO                 
1 29108U 06016B   12354.84739316  .00000824  00000-0  19299-3 0  1583
2 29108  98.2174 294.8812 0001021  74.8946 285.2374 14.57087504353495
HINODE (SOLAR-B)        
1 29479U 06041A   12355.06169119  .00000540  00000-0  11419-3 0  9685
2 29479  98.1082 351.1752 0017305 338.3758  21.6715 14.63069993333414
SJ-6C                   
1 29505U 06046A   12355.10527280  .00000863  00000-0  91106-4 0  8782
2 29505  97.7329 346.9246 0004073 123.0828 237.0757 14.91799012335108
SJ-6D                   
1 29506U 06046B   12355.09739180  .00000455  00000-0  51636-4 0  8528
2 29506  97.7434 345.5569 0002010 158.9876 201.1414 14.90995430334942
COROT                   
1 29678U 06063A   12354.57914439  .00000106  00000-0  66565-4 0  9768
2 29678  90.0091  10.5620 0007280  89.4633 270.7376 13.98311192305162
AGILE                   
1 31135U 07013A   12355.17760545  .00004213  00000-0  16953-3 0  7518
2 31135   2.4713 147.7344 0019173 299.2004  60.9316 15.14678194313254
AIM                     
1 31304U 07015A   12354.78538602  .00003805  00000-0  33529-3 0  9078
2 31304  97.8442 103.7445 0009505 283.7991  76.2190 14.97028811308107
FGRST (GLAST)           
1 33053U 08029A   12355.10325023  .00000283  00000-0  00000+0 0  2271
2 33053  25.5847 335.7084 0013863  85.4677 274.7626 15.06688273249280
KORONAS-FOTON           
1 33504U 09003A   12355.11296308  .00002009  00000-0  12811-3 0  2702
2 33504  82.4720  54.1273 0019818  23.5693   6.4926 15.08023489213662
TATIANA 2               
1 35868U 09049D   12355.21133418  .00000106  00000-0  67246-4 0   718
2 35868  98.6292  46.3303 0003717 212.8035 147.2912 14.22321918169078
UGATUSAT                
1 35869U 09049E   12355.19933420  .00000043  00000-0  38902-4 0   354
2 35869  98.6247  45.7502 0003843 230.3064 129.7786 14.22105136169054
SUMBANDILA (SO-67)      
1 35870U 09049F   12355.11905669  .00004833  00000-0  19360-3 0  6221
2 35870  97.2123  24.2907 0000921 184.9995 260.2356 15.25487685180947
WISE                    
1 36119U 09071A   12354.89137740  .00002485  00000-0  13113-3 0  8744
2 36119  97.5167 357.6868 0002306 327.8439  32.2653 15.16466804166620
SDO                     
1 36395U 10005A   12354.22064757 -.00000027  00000-0  10000-3 0  6362
2 36395  27.8257 170.5956 0000816 335.8191 279.5354  1.00272484 10641
CRYOSAT 2               
1 36508U 10013A   12354.82463545  .00000003  00000-0  00000+0 0  8271
2 36508  92.0118 165.5004 0010545 148.5817 211.6034 14.52183761143121
PICARD                  
1 36598U 10028A   12355.08552182  .00000192  00000-0  61072-4 0  7539
2 36598  98.2889 176.7853 0001819 357.3383   2.7789 14.49706946133050
GCOM-W1 (SHIZUKU)       
1 38337U 12025A   12354.36292786  .00000507  00000-0  12270-3 0  2879
2 38337  98.2164 291.1024 0001498  57.6251 302.5099 14.57111537 31426
NUSTAR                  
1 38358U 12031A   12347.62296476  .00001463  00000-0  96362-4 0  1146
2 38358   6.0257 345.4187 0013420  47.6155 312.5303 14.82298565 27049
